O3B MPOWER F1           
1 54755U 22174A   24005.24862229 -.00000010  00000+0  00000+0 0  9998
2 54755   0.0575  14.0900 0006101 283.4607  93.0968  5.00118480 20629
